IRIDIUM 63              
1 25286U 98021B   25361.94926189  .00000520  00000+0  16988-3 0  9999
2 25286  86.3982   0.8305 0002265  84.2003 275.9453 14.36748235451669
IRIDIUM 69              
1 25319U 98026A   25361.78116426  .00000509  00000+0  15164-3 0  9990
2 25319  86.3969  13.5781 0004581  98.1604 262.0116 14.41230374450943
IRIDIUM 71              
1 25320U 98026B   25361.97518226  .00000394  00000+0  11566-3 0  9991
2 25320  86.3970   8.1674 0003363 128.2692 231.8811 14.41327490451502
IRIDIUM 73              
1 25344U 98032C   25361.94011488  .00000903  00000+0  21846-3 0  9997
2 25344  86.4419 324.5285 0002968  80.7804 279.3737 14.52011340458672
IRIDIUM 82              
1 25467U 98051A   25361.97596650  .00055529  00000+0  99328-3 0  9990
2 25467  86.3605  13.4288 0056708 273.5678  85.9096 15.47958171453753
